[{"OBJECT_NAME":"PRAETORIAN SDA_611","OBJECT_ID":"2025-203K","EPOCH":"2026-03-09T12:43:32.643552","MEAN_MOTION":13.83296236,"ECCENTRICITY":0.00068676,"INCLINATION":81.297,"RA_OF_ASC_NODE":103.1149,"ARG_OF_PERICENTER":110.8784,"MEAN_ANOMALY":249.3108,"EPHEMERIS_TYPE":0,"CLASSIFICATION_TYPE":"U","NORAD_CAT_ID":65574,"ELEMENT_SET_NO":999,"REV_AT_EPOCH":2490,"BSTAR":0.00026081524,"MEAN_MOTION_DOT":2.98e-6,"MEAN_MOTION_DDOT":0},{"OBJECT_NAME":"METEOR 2-15","OBJECT_ID":"1987-001A","EPOCH":"2026-03-09T19:48:53.381376","MEAN_MOTION":13.8526204,"ECCENTRICITY":0.00142877,"INCLINATION":82.4708,"RA_OF_ASC_NODE":175.8,"ARG_OF_PERICENTER":93.2686,"MEAN_ANOMALY":267.0109,"EPHEMERIS_TYPE":0,"CLASSIFICATION_TYPE":"U","NORAD_CAT_ID":17290,"ELEMENT_SET_NO":999,"REV_AT_EPOCH":98007,"BSTAR":6.6103235e-5,"MEAN_MOTION_DOT":9.0e-7,"MEAN_MOTION_DDOT":0}]
